ONEWEB-0668             
1 56711U 23068B   25137.74047402  .00000015  00000+0  53990-5 0  9991
2 56711  87.9024 307.5739 0002326  98.5066 261.6329 13.16594620 99748
ONEWEB-0676             
1 56712U 23068C   25137.72066636  .00000046  00000+0  86999-4 0  9998
2 56712  87.9020 307.6067 0001513  78.9070 281.2231 13.16594874 99666
ONEWEB-0677             
1 56713U 23068D   25137.88779793 -.00000690  00000+0 -17295-2 0  9999
2 56713  87.9272 353.1622 0002583  79.7974 280.3451 13.20780214 97627
ONEWEB-0678             
1 56714U 23068E   25137.81399475 -.00000089  00000+0 -26930-3 0  9997
2 56714  87.9056 337.9835 0001435  91.0413 269.0882 13.15549559 97300
ONEWEB-0679             
1 56715U 23068F   25137.46181203  .00000114  00000+0  26516-3 0  9994
2 56715  87.9014 307.6519 0002201  84.2799 275.8583 13.16592711 99653
ONEWEB-0680             
1 56716U 23068G   25137.50784359  .00000011  00000+0 -44085-5 0  9991
2 56716  87.9223 322.8886 0002513  92.6888 267.4533 13.21827939 98829
ONEWEB-0681             
1 56717U 23068H   25137.74519078  .00000056  00000+0  10380-3 0  9999
2 56717  87.9243 322.8608 0001938  61.3755 298.7573 13.21827499 98844
